*******************************************************************************
JPL/HORIZONS                2367 Praha (1981 AK1)          2023-Sep-04 11:17:31
Rec #:    2367 (+COV) Soln.date: 2023-Aug-22_20:21:38   # obs: 3740 (1942-2023)
 
IAU76/J2000 helio. ecliptic osc. elements (au, days, deg., period=Julian yrs):
 
  EPOCH=  2457500.5 ! 2016-Apr-22.00 (TDB)         Residual RMS= .25605
   EC= .09934381452536736  QR= 1.987427759782775   TP= 2457834.1136743291
   OM= 190.8500699881538   W=  297.9984234480976   IN= 1.876630855548803
   A= 2.206644213224861    MA= 259.6887958290073   ADIST= 2.425860666666947
   PER= 3.27798            N= .300680733           ANGMOM= .025426928
   DAN= 2.08751            DDN= 2.29175            L= 128.8612366
   B= -1.6569256           MOID= 1.00381994        TP= 2017-Mar-21.6136743291
 
Asteroid physical parameters (km, seconds, rotational period in hours):
   GM= n.a.                RAD= 2.481              ROTPER= n.a.
   H= 13.31                G= .150                 B-V= n.a.
                           ALBEDO= .377            STYP= n.a.

ASTEROID comments: 
1: soln ref.= JPL#58, OCC=0
2: source=ORB
*******************************************************************************


*******************************************************************************
Ephemeris / API_USER Mon Sep  4 11:17:31 2023 Pasadena, USA      / Horizons
*******************************************************************************
Target body name: 2367 Praha (1981 AK1)           {source: JPL#58}
Center body name: Solar System Barycenter (0)     {source: DE441}
Center-site name: BODY CENTER
*******************************************************************************
Start time      : A.D. 2023-Aug-12 00:00:00.0000 TDB
Stop  time      : A.D. 2023-Aug-13 00:00:00.0000 TDB
Step-size       : 2880 minutes
*******************************************************************************
Center geodetic : 0.0, 0.0, 0.0                   {E-lon(deg),Lat(deg),Alt(km)}
Center cylindric: 0.0, 0.0, 0.0                   {E-lon(deg),Dxy(km),Dz(km)}
Center radii    : (undefined)
Small perturbers: Yes                             {source: SB441-N16}
Output units    : KM-S
Calendar mode   : Mixed Julian/Gregorian
Output type     : GEOMETRIC cartesian states
Output format   : 2 (position and velocity)
Reference frame : Ecliptic of J2000.0
*******************************************************************************
Initial IAU76/J2000 heliocentric ecliptic osculating elements (au, days, deg.):
  EPOCH=  2457500.5 ! 2016-Apr-22.00 (TDB)         Residual RMS= .25605        
   EC= .09934381452536736  QR= 1.987427759782775   TP= 2457834.1136743291      
   OM= 190.8500699881538   W=  297.9984234480976   IN= 1.876630855548803       
  Equivalent ICRF heliocentric cartesian coordinates (au, au/d):
   X= 2.159674783827850E+00  Y= 6.336896265521406E-01  Z= 2.651651267305455E-01
  VX=-4.427234487653489E-03 VY= 9.647767762347223E-03 VZ= 3.789726262106650E-03
Asteroid physical parameters (km, seconds, rotational period in hours):        
   GM= n.a.                RAD= 2.481              ROTPER= n.a.                
   H= 13.31                G= .150                 B-V= n.a.                   
                           ALBEDO= .377            STYP= n.a.                  
*******************************************************************************
JDTDB
   X     Y     Z
   VX    VY    VZ
*******************************************************************************
$$SOE
2460168.500000000 = A.D. 2023-Aug-12 00:00:00.0000 TDB 
 X =-8.741947508511749E+07 Y = 2.864468583891882E+08 Z =-9.740636479091629E+06
 VX=-2.083614834339257E+01 VY=-7.058994297648503E+00 VZ= 9.890479759032322E-02
$$EOE
*******************************************************************************
 
TIME

  Barycentric Dynamical Time ("TDB" or T_eph) output was requested. This
continuous coordinate time is equivalent to the relativistic proper time
of a clock at rest in a reference frame co-moving with the solar system
barycenter but outside the system's gravity well. It is the independent
variable in the solar system relativistic equations of motion.

  TDB runs at a uniform rate of one SI second per second and is independent
of irregularities in Earth's rotation.
 
CALENDAR SYSTEM

  Mixed calendar mode was active such that calendar dates after AD 1582-Oct-15
(if any) are in the modern Gregorian system. Dates prior to 1582-Oct-5 (if any)
are in the Julian calendar system, which is automatically extended for dates
prior to its adoption on 45-Jan-1 BC.  The Julian calendar is useful for
matching historical dates. The Gregorian calendar more accurately corresponds
to the Earth's orbital motion and seasons. A "Gregorian-only" calendar mode is
available if such physical events are the primary interest.

REFERENCE FRAME AND COORDINATES

  Ecliptic at the standard reference epoch

    Reference epoch: J2000.0
    X-Y plane: adopted Earth orbital plane at the reference epoch
               Note: IAU76 obliquity of 84381.448 arcseconds wrt ICRF X-Y plane
    X-axis   : ICRF
    Z-axis   : perpendicular to the X-Y plane in the directional (+ or -) sense
               of Earth's north pole at the reference epoch.

  Symbol meaning:

    JDTDB    Julian Day Number, Barycentric Dynamical Time
      X      X-component of position vector (km)
      Y      Y-component of position vector (km)
      Z      Z-component of position vector (km)
      VX     X-component of velocity vector (km/sec)                           
      VY     Y-component of velocity vector (km/sec)                           
      VZ     Z-component of velocity vector (km/sec)                           

ABERRATIONS AND CORRECTIONS

 Geometric state vectors have NO corrections or aberrations applied.

Computations by ...

    Solar System Dynamics Group, Horizons On-Line Ephemeris System
    4800 Oak Grove Drive, Jet Propulsion Laboratory
    Pasadena, CA  91109   USA

    General site: https://ssd.jpl.nasa.gov/
    Mailing list: https://ssd.jpl.nasa.gov/email_list.html
    System news : https://ssd.jpl.nasa.gov/horizons/news.html
    User Guide  : https://ssd.jpl.nasa.gov/horizons/manual.html
    Connect     : browser        https://ssd.jpl.nasa.gov/horizons/app.html#/x
                  API            https://ssd-api.jpl.nasa.gov/doc/horizons.html
                  command-line   telnet ssd.jpl.nasa.gov 6775
                  e-mail/batch   https://ssd.jpl.nasa.gov/ftp/ssd/hrzn_batch.txt
                  scripts        https://ssd.jpl.nasa.gov/ftp/ssd/SCRIPTS
    Author      : Jon.D.Giorgini@jpl.nasa.gov
*******************************************************************************
